ONEWEB-0144             
1 47290U 20100AJ  24178.39185345  .00000217  00000+0  56877-3 0  9990
2 47290  87.8944 134.1730 0001777  74.1399 285.9925 13.12443952170022
ONEWEB-0145             
1 47291U 20100AK  24178.36264087 -.00000304  00000+0 -87937-3 0  9999
2 47291  87.8944 134.2024 0001960  79.9774 280.1576 13.12441012170219
ONEWEB-0146             
1 47292U 20100AL  24178.43564125 -.00000260  00000+0 -75893-3 0  9993
2 47292  87.8945 134.1717 0002469  88.7867 271.3544 13.12442555170136
ONEWEB-0147             
1 47293U 20100AM  24178.40157802  .00000486  00000+0  13162-2 0  9999
2 47293  87.8941 134.1724 0002158  72.8320 287.3045 13.12444414170021
ONEWEB-0115             
1 48042U 21025A   24178.30682772  .00000218  00000+0  56175-3 0  9992
2 48042  87.8925 103.7234 0002185  77.2459 282.8914 13.13472047158964
ONEWEB-0152             
1 48043U 21025B   24178.31953364  .00000443  00000+0  11786-2 0  9990
2 48043  87.8931 103.7187 0002115  77.6545 282.4821 13.13471160158926
ONEWEB-0153             
1 48044U 21025C   24179.21142739 -.00000212  00000+0 -61681-3 0  9993
2 48044  87.8934 103.5287 0001950  76.5702 283.5644 13.13471687159041
ONEWEB-0154             
1 48045U 21025D   24179.20825276 -.00000227  00000+0 -65658-3 0  9991
2 48045  87.8929 103.5406 0002034  75.6731 284.4624 13.13472004159003
